[{"OBJECT_NAME":"CELESTIS-02 & TAURUS R\/B","OBJECT_ID":"1998-007D","EPOCH":"2026-03-09T22:56:59.337312","MEAN_MOTION":14.22453237,"ECCENTRICITY":0.00634235,"INCLINATION":108.0072,"RA_OF_ASC_NODE":131.996,"ARG_OF_PERICENTER":301.5817,"MEAN_ANOMALY":134.6877,"EPHEMERIS_TYPE":0,"CLASSIFICATION_TYPE":"U","NORAD_CAT_ID":25160,"ELEMENT_SET_NO":999,"REV_AT_EPOCH":45640,"BSTAR":6.4821117e-5,"MEAN_MOTION_DOT":1.8e-7,"MEAN_MOTION_DDOT":0},{"OBJECT_NAME":"CZ-6A DEB","OBJECT_ID":"2024-140QG","EPOCH":"2026-03-09T14:42:18.513792","MEAN_MOTION":14.1020517,"ECCENTRICITY":0.0115647,"INCLINATION":88.9756,"RA_OF_ASC_NODE":285.6629,"ARG_OF_PERICENTER":213.7922,"MEAN_ANOMALY":145.5856,"EPHEMERIS_TYPE":0,"CLASSIFICATION_TYPE":"U","NORAD_CAT_ID":61138,"ELEMENT_SET_NO":999,"REV_AT_EPOCH":7936,"BSTAR":0.0023677,"MEAN_MOTION_DOT":4.473e-5,"MEAN_MOTION_DDOT":0}]
